{"type": "FeatureCollection", "features": [ {"type": "Feature", "properties": {"norad_id": 42987, "name": "SKYSAT-C11", "group": "resource", "lat": -10.433570304391026, "lon": 132.23516805717395, "alt_km": 428.0561979113836, "timestamp": "2025-12-19T04:59:47.958165+00:00", "meta": {"OBJECT_NAME": "SKYSAT-C11", "OBJECT_ID": "2017-068A", "EPOCH": "2025-12-18T22:50:06.811872", "MEAN_MOTION": 15.47702114, "ECCENTRICITY": 0.00011532, "INCLINATION": 97.4142, "RA_OF_ASC_NODE": 130.598, "ARG_OF_PERICENTER": 99.6739, "MEAN_ANOMALY": 260.4642, "EPHEMERIS_TYPE": 0, "CLASSIFICATION_TYPE": "U", "NORAD_CAT_ID": 42987, "ELEMENT_SET_NO": 999, "REV_AT_EPOCH": 45527, "BSTAR": 0.00036065159, "MEAN_MOTION_DOT": 0.00018579, "MEAN_MOTION_DDOT": 0}, "tle": {"line1": "1 42987U 17068A   25352.95146773  .00018579  00000+0  36065-3 0  9993", "line2": "2 42987  97.4142 130.5980 0001153  99.6739 260.4642 15.47702114455277"}}, "geometry": {"type": "Point", "coordinates": [132.23516805717395, -10.433570304391026]}}, {"type": "Feature", "properties": {"norad_id": 42988, "name": "SKYSAT-C10", "group": "resource", "lat": 69.43833699500709, "lon": 103.72979843713213, "alt_km": 458.9345629332929, "timestamp": "2025-12-19T04:59:47.958176+00:00", "meta": {"OBJECT_NAME": "SKYSAT-C10", "OBJECT_ID": "2017-068B", "EPOCH": "2025-12-18T22:25:10.285248", "MEAN_MOTION": 15.32190604, "ECCENTRICITY": 0.00054557, "INCLINATION": 97.426, "RA_OF_ASC_NODE": 123.8024, "ARG_OF_PERICENTER": 86.4338, "MEAN_ANOMALY": 273.7528, "EPHEMERIS_TYPE": 0, "CLASSIFICATION_TYPE": "U", "NORAD_CAT_ID": 42988, "ELEMENT_SET_NO": 999, "REV_AT_EPOCH": 45474, "BSTAR": 0.00029573083, "MEAN_MOTION_DOT": 9.118e-05, "MEAN_MOTION_DDOT": 0}, "tle": {"line1": "1 42988U 17068B   25352.93414682  .00009118  00000+0  29573-3 0  9994", "line2": "2 42988  97.4260 123.8024 0005455  86.4338 273.7528 15.32190604454741"}}, "geometry": {"type": "Point", "coordinates": [103.72979843713213, 69.43833699500709]}}, {"type": "Feature", "properties": {"norad_id": 42989, "name": "SKYSAT-C9", "group": "resource", "lat": 11.089838117341287, "lon": 122.04974732818249, "alt_km": 454.8156618568664, "timestamp": "2025-12-19T04:59:47.958186+00:00", "meta": {"OBJECT_NAME": "SKYSAT-C9", "OBJECT_ID": "2017-068C", "EPOCH": "2025-12-18T22:41:41.803008", "MEAN_MOTION": 15.36203039, "ECCENTRICITY": 0.0010548, "INCLINATION": 97.4193, "RA_OF_ASC_NODE": 123.2487, "ARG_OF_PERICENTER": 67.9248, "MEAN_ANOMALY": 292.3115, "EPHEMERIS_TYPE": 0, "CLASSIFICATION_TYPE": "U", "NORAD_CAT_ID": 42989, "ELEMENT_SET_NO": 999, "REV_AT_EPOCH": 45503, "BSTAR": 0.00029759929, "MEAN_MOTION_DOT": 0.00010438, "MEAN_MOTION_DDOT": 0}, "tle": {"line1": "1 42989U 17068C   25352.94562272  .00010438  00000+0  29760-3 0  9990", "line2": "2 42989  97.4193 123.2487 0010548  67.9248 292.3115 15.36203039455030"}}, "geometry": {"type": "Point", "coordinates": [122.04974732818249, 11.089838117341287]}}, {"type": "Feature", "properties": {"norad_id": 42990, "name": "SKYSAT-C8", "group": "resource", "lat": -82.52317863571614, "lon": -140.54923219394652, "alt_km": 473.50410606037076, "timestamp": "2025-12-19T04:59:47.958196+00:00", "meta": {"OBJECT_NAME": "SKYSAT-C8", "OBJECT_ID": "2017-068D", "EPOCH": "2025-12-18T19:59:35.453472", "MEAN_MOTION": 15.33051371, "ECCENTRICITY": 0.00011703, "INCLINATION": 97.4282, "RA_OF_ASC_NODE": 122.8599, "ARG_OF_PERICENTER": 316.3061, "MEAN_ANOMALY": 43.8088, "EPHEMERIS_TYPE": 0, "CLASSIFICATION_TYPE": "U", "NORAD_CAT_ID": 42990, "ELEMENT_SET_NO": 999, "REV_AT_EPOCH": 45464, "BSTAR": 0.00030081895, "MEAN_MOTION_DOT": 9.527e-05, "MEAN_MOTION_DDOT": 0}, "tle": {"line1": "1 42990U 17068D   25352.83304923  .00009527  00000+0  30082-3 0  9993", "line2": "2 42990  97.4282 122.8599 0001170 316.3061  43.8088 15.33051371454646"}}, "geometry": {"type": "Point", "coordinates": [-140.54923219394652, -82.52317863571614]}}, {"type": "Feature", "properties": {"norad_id": 42991, "name": "SKYSAT-C7", "group": "resource", "lat": 67.91074386981089, "lon": -36.97281035116525, "alt_km": 460.496076905044, "timestamp": "2025-12-19T04:59:47.958207+00:00", "meta": {"OBJECT_NAME": "SKYSAT-C7", "OBJECT_ID": "2017-068E", "EPOCH": "2025-12-18T22:14:48.659712", "MEAN_MOTION": 15.32453251, "ECCENTRICITY": 0.00072381, "INCLINATION": 97.429, "RA_OF_ASC_NODE": 123.9903, "ARG_OF_PERICENTER": 38.2093, "MEAN_ANOMALY": 321.9661, "EPHEMERIS_TYPE": 0, "CLASSIFICATION_TYPE": "U", "NORAD_CAT_ID": 42991, "ELEMENT_SET_NO": 999, "REV_AT_EPOCH": 45472, "BSTAR": 0.00029204968, "MEAN_MOTION_DOT": 9.081e-05, "MEAN_MOTION_DDOT": 0}, "tle": {"line1": "1 42991U 17068E   25352.92695208  .00009081  00000+0  29205-3 0  9993", "line2": "2 42991  97.4290 123.9903 0007238  38.2093 321.9661 15.32453251454721"}}, "geometry": {"type": "Point", "coordinates": [-36.97281035116525, 67.91074386981089]}}, {"type": "Feature", "properties": {"norad_id": 42992, "name": "SKYSAT-C6", "group": "resource", "lat": -28.040443055946447, "lon": -59.281035794895125, "alt_km": 479.6682598888392, "timestamp": "2025-12-19T04:59:47.958218+00:00", "meta": {"OBJECT_NAME": "SKYSAT-C6", "OBJECT_ID": "2017-068F", "EPOCH": "2025-12-18T20:15:03.221856", "MEAN_MOTION": 15.31610998, "ECCENTRICITY": 0.00050359, "INCLINATION": 97.4323, "RA_OF_ASC_NODE": 124.3405, "ARG_OF_PERICENTER": 66.0941, "MEAN_ANOMALY": 294.0827, "EPHEMERIS_TYPE": 0, "CLASSIFICATION_TYPE": "U", "NORAD_CAT_ID": 42992, "ELEMENT_SET_NO": 999, "REV_AT_EPOCH": 45469, "BSTAR": 0.00029301506, "MEAN_MOTION_DOT": 8.87e-05, "MEAN_MOTION_DDOT": 0}, "tle": {"line1": "1 42992U 17068F   25352.84378729  .00008870  00000+0  29302-3 0  9994", "line2": "2 42992  97.4323 124.3405 0005035  66.0941 294.0827 15.31610998454697"}}, "geometry": {"type": "Point", "coordinates": [-59.281035794895125, -28.040443055946447]}}, {"type": "Feature", "properties": {"norad_id": 43111, "name": "CARTOSAT-2F", "group": "resource", "lat": 28.968034915167785, "lon": 46.598032851192485, "alt_km": 506.8129627140397, "timestamp": "2025-12-19T04:59:47.958228+00:00", "meta": {"OBJECT_NAME": "CARTOSAT-2F", "OBJECT_ID": "2018-004A", "EPOCH": "2025-12-18T22:32:42.501120", "MEAN_MOTION": 15.19181307, "ECCENTRICITY": 0.00014533, "INCLINATION": 97.4318, "RA_OF_ASC_NODE": 50.4774, "ARG_OF_PERICENTER": 108.2065, "MEAN_ANOMALY": 251.9328, "EPHEMERIS_TYPE": 0, "CLASSIFICATION_TYPE": "U", "NORAD_CAT_ID": 43111, "ELEMENT_SET_NO": 999, "REV_AT_EPOCH": 43996, "BSTAR": 0.00022724061, "MEAN_MOTION_DOT": 4.712e-05, "MEAN_MOTION_DDOT": 0}, "tle": {"line1": "1 43111U 18004A   25352.93938080  .00004712  00000+0  22724-3 0  9993", "line2": "2 43111  97.4318  50.4774 0001453 108.2065 251.9328 15.19181307439963"}}, "geometry": {"type": "Point", "coordinates": [46.598032851192485, 28.968034915167785]}}, {"type": "Feature", "properties": {"norad_id": 43259, "name": "GAOFEN-1 02", "group": "resource", "lat": -58.46184191472915, "lon": -142.38456295823016, "alt_km": 646.7188326525475, "timestamp": "2025-12-19T04:59:47.958239+00:00", "meta": {"OBJECT_NAME": "GAOFEN-1 02", "OBJECT_ID": "2018-031A", "EPOCH": "2025-12-18T23:02:10.621824", "MEAN_MOTION": 14.76428147, "ECCENTRICITY": 0.00021263, "INCLINATION": 98.0805, "RA_OF_ASC_NODE": 50.7518, "ARG_OF_PERICENTER": 193.0384, "MEAN_ANOMALY": 167.0771, "EPHEMERIS_TYPE": 0, "CLASSIFICATION_TYPE": "U", "NORAD_CAT_ID": 43259, "ELEMENT_SET_NO": 999, "REV_AT_EPOCH": 41610, "BSTAR": 0.00012018885, "MEAN_MOTION_DOT": 7.84e-06, "MEAN_MOTION_DDOT": 0}, "tle": {"line1": "1 43259U 18031A   25352.95984516  .00000784  00000+0  12019-3 0  9994", "line2": "2 43259  98.0805  50.7518 0002126 193.0384 167.0771 14.76428147416105"}}, "geometry": {"type": "Point", "coordinates": [-142.38456295823016, -58.46184191472915]}}, {"type": "Feature", "properties": {"norad_id": 43260, "name": "GAOFEN-1 03", "group": "resource", "lat": -5.048093723922801, "lon": 51.59489695454174, "alt_km": 643.6974621073177, "timestamp": "2025-12-19T04:59:47.958249+00:00", "meta": {"OBJECT_NAME": "GAOFEN-1 03", "OBJECT_ID": "2018-031B", "EPOCH": "2025-12-18T22:30:49.216032", "MEAN_MOTION": 14.76449246, "ECCENTRICITY": 0.00017323, "INCLINATION": 98.0791, "RA_OF_ASC_NODE": 50.6058, "ARG_OF_PERICENTER": 290.2219, "MEAN_ANOMALY": 69.8804, "EPHEMERIS_TYPE": 0, "CLASSIFICATION_TYPE": "U", "NORAD_CAT_ID": 43260, "ELEMENT_SET_NO": 999, "REV_AT_EPOCH": 41609, "BSTAR": 0.00010947653, "MEAN_MOTION_DOT": 7.1e-06, "MEAN_MOTION_DDOT": 0}, "tle": {"line1": "1 43260U 18031B   25352.93806963  .00000710  00000+0  10948-3 0  9991", "line2": "2 43260  98.0791  50.6058 0001732 290.2219  69.8804 14.76449246416095"}}, "geometry": {"type": "Point", "coordinates": [51.59489695454174, -5.048093723922801]}}, {"type": "Feature", "properties": {"norad_id": 43262, "name": "GAOFEN-1 04", "group": "resource", "lat": 54.43090864515365, "lon": -117.49413134984742, "alt_km": 635.1013671220771, "timestamp": "2025-12-19T04:59:47.958259+00:00", "meta": {"OBJECT_NAME": "GAOFEN-1 04", "OBJECT_ID": "2018-031D", "EPOCH": "2025-12-18T23:33:15.977952", "MEAN_MOTION": 14.7646114, "ECCENTRICITY": 8.465e-05, "INCLINATION": 98.0806, "RA_OF_ASC_NODE": 50.8199, "ARG_OF_PERICENTER": 62.2562, "MEAN_ANOMALY": 297.8734, "EPHEMERIS_TYPE": 0, "CLASSIFICATION_TYPE": "U", "NORAD_CAT_ID": 43262, "ELEMENT_SET_NO": 999, "REV_AT_EPOCH": 41609, "BSTAR": 7.0331369e-05, "MEAN_MOTION_DOT": 4.38e-06, "MEAN_MOTION_DDOT": 0}, "tle": {"line1": "1 43262U 18031D   25352.98143493  .00000438  00000+0  70331-4 0  9990", "line2": "2 43262  98.0806  50.8199 0000846  62.2562 297.8734 14.76461140416097"}}, "geometry": {"type": "Point", "coordinates": [-117.49413134984742, 54.43090864515365]}}]}